NORAD_CAT_ID,OBJECT_NAME,OBJECT_TYPE,EPOCH,MEAN_MOTION,ECCENTRICITY,INCLINATION,RA_OF_ASC_NODE,ARG_OF_PERICENTER,MEAN_ANOMALY,BSTAR,MEAN_MOTION_DOT,MEAN_MOTION_DDOT,TLE_LINE0,TLE_LINE1,TLE_LINE2,SEMIMAJOR_AXIS,PERIOD,APOGEE,PERIGEE,DECAYED
50850.0,STARLINK-3312,PAYLOAD,2022-12-14 09:54:56,15.08850473,0.0002447,53.2193,42.0825,36.3417,323.7741,0.00010331,1.357e-05,0.0,0 STARLINK-3312,1 50850U 22001AZ  22348.41315228  .00001357  00000-0  10331-3 0  9995,2 50850  53.2193  42.0825 0002447  36.3417 323.7741 15.08850473 53775,6917.848000000001,95.437,541.406,538.021,0.0
50850.0,STARLINK-3312,PAYLOAD,2022-12-14 21:02:38,15.088433800000002,0.0002429,53.2187,40.001,32.6759,327.4384,6.9918e-05,8.25e-06,0.0,0 STARLINK-3312,1 50850U 22001AZ  22348.87683498  .00000825  00000-0  69918-4 0  9997,2 50850  53.2187  40.0010 0002429  32.6759 327.4384 15.08843380 53100,6917.87,95.437,541.415,538.055,0.0
50850.0,STARLINK-3312,PAYLOAD,2022-12-15 06:34:56,15.0885652,0.0002411,53.2184,38.2157,31.7203,328.3934,0.00028043,4.18e-05,0.0,0 STARLINK-3312,1 50850U 22001AZ  22349.27426647  .00004180  00000-0  28043-3 0  9994,2 50850  53.2184  38.2157 0002411  31.7203 328.3934 15.08856520 53902,6917.83,95.437,541.363,538.0269999999998,0.0
50850.0,STARLINK-3312,PAYLOAD,2022-12-15 11:21:06,15.08844568,0.0002499,53.2189,37.3249,33.2352,326.8797,9.6232e-05,1.244e-05,0.0,0 STARLINK-3312,1 50850U 22001AZ  22349.47299207  .00001244  00000-0  96232-4 0  9990,2 50850  53.2189  37.3249 0002499  33.2352 326.8797 15.08844568 53939,6917.866,95.437,541.46,538.003,0.0
50850.0,STARLINK-3312,PAYLOAD,2022-12-15 14:31:52,15.08840103,0.000255,53.2178,36.7292,28.1719,331.941,8.067000000000001e-06,-1.6e-06,0.0,0 STARLINK-3312,1 50850U 22001AZ  22349.60547413 -.00000160  00000-0  80670-5 0  9997,2 50850  53.2178  36.7292 0002550  28.1719 331.9410 15.08840103 53217,6917.88,95.438,541.509,537.981,0.0
50850.0,STARLINK-3312,PAYLOAD,2022-12-16 12:47:16,15.08842061,0.0002515,53.2186,32.5668,30.9598,329.1542,9.9797e-06,-1.3e-06,0.0,0 STARLINK-3312,1 50850U 22001AZ  22350.53283202 -.00000130  00000-0  99797-5 0  9991,2 50850  53.2186  32.5668 0002515  30.9598 329.1542 15.08842061 54091,6917.874,95.437,541.479,537.999,0.0
50850.0,STARLINK-3312,PAYLOAD,2022-12-16 14:22:40,15.08839204,0.0002592,53.2191,32.2706,32.0501,328.0649,-1.8029e-05,-5.75e-06,0.0,0 STARLINK-3312,1 50850U 22001AZ  22350.59907423 -.00000575  00000-0 -18029-4 0  9997,2 50850  53.2191  32.2706 0002592  32.0501 328.0649 15.08839204 53369,6917.8830000000025,95.438,541.5409999999998,537.955,0.0
50850.0,STARLINK-3312,PAYLOAD,2022-12-17 03:05:45,15.08832531,0.0002709,53.2187,29.8914,31.4351,328.6802,-0.00012827,-2.329e-05,0.0,0 STARLINK-3312,1 50850U 22001AZ  22351.12900083 -.00002329  00000-0 -12827-3 0  9990,2 50850  53.2187  29.8914 0002709  31.4351 328.6802 15.08832531 54187,6917.903,95.438,541.6419999999998,537.894,0.0
50850.0,STARLINK-3312,PAYLOAD,2022-12-17 12:38:04,15.08835039,0.0002572,53.2188,28.1068,27.474,332.6388,-7.238399999999999e-05,-1.44e-05,0.0,0 STARLINK-3312,1 50850U 22001AZ  22351.52644010 -.00001440  00000-0 -72384-4 0  9997,2 50850  53.2188  28.1068 0002572  27.4740 332.6388 15.08835039 53500,6917.896,95.438,541.54,537.981,0.0
50850.0,STARLINK-3312,PAYLOAD,2022-12-17 14:13:27,15.08836646,0.0002577,53.2188,27.8095,27.5823,332.5305,-3.9638e-05,-9.19e-06,0.0,0 STARLINK-3312,1 50850U 22001AZ  22351.59267960 -.00000919  00000-0 -39638-4 0  9994,2 50850  53.2188  27.8095 0002577  27.5823 332.5305 15.08836646 53518,6917.891,95.438,541.538,537.9730000000002,0.0
50850.0,STARLINK-3312,PAYLOAD,2022-12-18 04:31:56,15.08834561,0.0002569,53.2188,25.1333,27.725,332.3878,9.1297e-05,1.165e-05,0.0,0 STARLINK-3312,1 50850U 22001AZ  22352.18884422  .00001165  00000-0  91297-4 0  9999,2 50850  53.2188  25.1333 0002569  27.7250 332.3878 15.08834561 54340,6917.897,95.438,541.539,537.985,0.0
50850.0,STARLINK-3312,PAYLOAD,2022-12-18 12:28:51,15.08835141,0.0002578,53.2188,23.6466,28.4372,331.676,0.00013388,1.843e-05,0.0,0 STARLINK-3312,1 50850U 22001AZ  22352.52004583  .00001843  00000-0  13388-3 0  9996,2 50850  53.2188  23.6466 0002578  28.4372 331.6760 15.08835141 53653,6917.895,95.438,541.544,537.977,0.0
50850.0,STARLINK-3312,PAYLOAD,2022-12-18 18:50:24,15.08835686,0.000261,53.2188,22.4573,28.2778,331.8355,9.8924e-05,1.286e-05,0.0,0 STARLINK-3312,1 50850U 22001AZ  22352.78500642  .00001286  00000-0  98924-4 0  9992,2 50850  53.2188  22.4573 0002610  28.2778 331.8355 15.08835686 53694,6917.894,95.438,541.564,537.953,0.0
50850.0,STARLINK-3312,PAYLOAD,2022-12-19 09:08:52,15.08844549,0.0002593,53.2188,19.7812,27.495,332.6179,0.00028528,4.255e-05,0.0,0 STARLINK-3312,1 50850U 22001AZ  22353.38116498  .00004255  00000-0  28528-3 0  9992,2 50850  53.2188  19.7812 0002593  27.4950 332.6179 15.08844549 54526,6917.866,95.437,541.525,537.938,0.0
50850.0,STARLINK-3312,PAYLOAD,2022-12-19 18:41:10,15.08855784,0.0002619,53.2187,17.9973,27.9463,332.1669,0.00039614,6.025e-05,0.0,0 STARLINK-3312,1 50850U 22001AZ  22353.77859940  .00006025  00000-0  39614-3 0  9996,2 50850  53.2187  17.9973 0002619  27.9463 332.1669 15.08855784 53842,6917.831999999999,95.437,541.509,537.885,0.0
50850.0,STARLINK-3312,PAYLOAD,2022-12-20 10:35:02,15.08855496,0.0002639,53.2188,15.0238,28.3135,331.8,0.00025847,3.829e-05,0.0,0 STARLINK-3312,1 50850U 22001AZ  22354.44099548  .00003829  00000-0  25847-3 0  9993,2 50850  53.2188  15.0238 0002639  28.3135 331.8000 15.08855496 54687,6917.833000000001,95.437,541.524,537.872,0.0
50850.0,STARLINK-3312,PAYLOAD,2022-12-21 02:28:53,15.08841814,0.0002691,53.2186,12.05,30.0231,330.0915,-1.8618e-05,-5.85e-06,0.0,0 STARLINK-3312,1 50850U 22001AZ  22355.10339882 -.00000585  00000-0 -18618-4 0  9992,2 50850  53.2186  12.0500 0002691  30.0231 330.0915 15.08841814 54785,6917.875,95.437,541.601,537.878,0.0
50850.0,STARLINK-3312,PAYLOAD,2022-12-21 10:25:49,15.0883487,0.0002652,53.2182,10.5623,30.023000000000003,330.0914,-0.00014153,-2.54e-05,0.0,0 STARLINK-3312,1 50850U 22001AZ  22355.43460144 -.00002540  00000-0 -14153-3 0  9996,2 50850  53.2182  10.5623 0002652  30.0230 330.0914 15.08834870 54093,6917.896,95.438,541.596,537.9259999999998,0.0
50850.0,STARLINK-3312,PAYLOAD,2022-12-22 08:41:13,15.08839665,0.0002549,53.2184,6.3991,29.4484,330.6652,-5.0085e-06,-3.68e-06,0.0,0 STARLINK-3312,1 50850U 22001AZ  22356.36196321 -.00000368  00000-0 -50085-5 0  9994,2 50850  53.2184   6.3991 0002549  29.4484 330.6652 15.08839665 54232,6917.880999999999,95.438,541.51,537.9830000000002,0.0
50850.0,STARLINK-3312,PAYLOAD,2022-12-22 18:13:33,15.08828987,0.0002742,53.2187,4.6173,28.8433,331.271,-3.0073e-05,-7.67e-06,0.0,0 STARLINK-3312,1 50850U 22001AZ  22356.75941228 -.00000767  00000-0 -30073-4 0  9998,2 50850  53.2187   4.6173 0002742  28.8433 331.2710 15.08828987 55036,6917.9140000000025,95.438,541.6759999999998,537.882,0.0
50850.0,STARLINK-3312,PAYLOAD,2022-12-23 03:45:51,15.08848293,0.0002931,53.2182,2.8326,21.1266,338.9846,0.00049327,7.573e-05,0.0,0 STARLINK-3312,1 50850U 22001AZ  22357.15684398  .00007573  00000-0  49327-3 0  9996,2 50850  53.2182   2.8326 0002931  21.1266 338.9846 15.08848293 55093,6917.855,95.437,541.748,537.692,0.0
50850.0,STARLINK-3312,PAYLOAD,2022-12-23 10:07:24,15.08838897,0.0002631,53.2183,1.6413,29.0547,331.0592,0.00022909,3.359e-05,0.0,0 STARLINK-3312,1 50850U 22001AZ  22357.42180895  .00003359  00000-0  22909-3 0  9994,2 50850  53.2183   1.6413 0002631  29.0547 331.0592 15.08838897 55130,6917.884,95.438,541.569,537.929,0.0
50850.0,STARLINK-3312,PAYLOAD,2022-12-23 19:39:42,15.08849437,0.0002445,53.2175,359.8583,30.0277,330.0855,0.00035003,5.288e-05,0.0,0 STARLINK-3312,1 50850U 22001AZ  22357.81924482  .00005288  00000-0  35003-3 0  9997,2 50850  53.2175 359.8583 0002445  30.0277 330.0855 15.08849437 54459,6917.852,95.437,541.408,538.025,0.0
50850.0,STARLINK-3312,PAYLOAD,2022-12-24 09:58:10,15.08846712,0.0002536,53.2175,357.1819,31.1118,329.0024,0.00016923,2.406e-05,0.0,0 STARLINK-3312,1 50850U 22001AZ  22358.41540373  .00002406  00000-0  16923-3 0  9996,2 50850  53.2175 357.1819 0002536  31.1118 329.0024 15.08846712 54548,6917.86,95.437,541.479,537.971,0.0
50850.0,STARLINK-3312,PAYLOAD,2022-12-24 21:05:52,15.08844087,0.0002508,53.2175,355.1005,31.2479,328.8662,-5.7634e-05,-1.206e-05,0.0,0 STARLINK-3312,1 50850U 22001AZ  22358.87908445 -.00001206  00000-0 -57634-4 0  9998,2 50850  53.2175 355.1005 0002508  31.2479 328.8662 15.08844087 55351,6917.868,95.437,541.4680000000002,537.998,0.0
50850.0,STARLINK-3312,PAYLOAD,2022-12-25 09:48:58,15.08841576,0.0002619,53.2189,352.7222,27.8129,332.3003,-6.2906e-05,-1.29e-05,0.0,0 STARLINK-3312,1 50850U 22001AZ  22359.40900869 -.00001290  00000-0 -62906-4 0  9991,2 50850  53.2189 352.7222 0002619  27.8129 332.3003 15.08841576 54691,6917.876,95.437,541.552,537.929,0.0
50850.0,STARLINK-3312,PAYLOAD,2022-12-25 16:10:30,15.08837984,0.0002503,53.2196,351.5326,29.7908,330.3226,2.4072e-05,9.5e-07,0.0,0 STARLINK-3312,1 50850U 22001AZ  22359.67396873  .00000095  00000-0  24072-4 0  9996,2 50850  53.2196 351.5326 0002503  29.7908 330.3226 15.08837984 55479,6917.887,95.438,541.4830000000002,538.02,0.0
50850.0,STARLINK-3312,PAYLOAD,2022-12-26 00:07:27,15.08827102,0.0002284,53.2185,350.0465,29.8332,330.279,-5.1747000000000015e-06,-3.71e-06,0.0,0 STARLINK-3312,1 50850U 22001AZ  22360.00517620 -.00000371  00000-0 -51747-5 0  9999,2 50850  53.2185 350.0465 0002284  29.8332 330.2790 15.08827102 55525,6917.92,95.438,541.365,538.205,0.0
50850.0,STARLINK-3312,PAYLOAD,2022-12-26 06:28:59,15.08832694,0.0002498,53.2185,348.8576,27.9025,332.2101,4.7183e-05,4.62e-06,0.0,0 STARLINK-3312,1 50850U 22001AZ  22360.27013463  .00000462  00000-0  47183-4 0  9991,2 50850  53.2185 348.8576 0002498  27.9025 332.2101 15.08832694 54820,6917.903,95.438,541.496,538.04,0.0
